{"type":"FeatureCollection","crs":{"type":"name","properties":{"name":"EPSG:4269"}},"features":[{"type":"Feature","id":0,"geometry":{"type":"Point","coordinates":[-87.609247999999994,41.658954999999999]},"properties":{"FID":0,"Name":"Smily's Convenience Store","Address":"507 E 130th St","ZIP":60827,"PhoneNum":"N/A","Type":"Convenience Store"}},{"type":"Feature","id":1,"geometry":{"type":"Point","coordinates":[-87.622262000000006,41.670259000000001]},"properties":{"FID":1,"Name":"Karkar Foods","Address":"12315 S State St","ZIP":60628,"PhoneNum":"773-660-0445","Type":"Convenience Store"}},{"type":"Feature","id":2,"geometry":{"type":"Point","coordinates":[-87.625371000000001,41.677914000000001]},"properties":{"FID":2,"Name":"Perry Food Store","Address":"101 W 119th St","ZIP":60628,"PhoneNum":"773-785-1000","Type":"Convenience Store"}},{"type":"Feature","id":3,"geometry":{"type":"Point","coordinates":[-87.563540000000003,41.630127999999999]},"properties":{"FID":3,"Name":"Steve's Mini Mart","Address":"2210 W State St","ZIP":60409,"PhoneNum":"N/A","Type":"Convenience Store"}},{"type":"Feature","id":4,"geometry":{"type":"Point","coordinates":[-87.617324999999994,41.638927000000002]},"properties":{"FID":4,"Name":"Express Drive Thru Food Mart","Address":"14100 S Indiana Ave","ZIP":60827,"PhoneNum":"N/A","Type":"Convenience Store"}},{"type":"Feature","id":5,"geometry":{"type":"Point","coordinates":[-87.628313000000006,41.692666000000003]},"properties":{"FID":5,"Name":"Express Mart","Address":"11058 S Wentworth Ave","ZIP":60628,"PhoneNum":"773-629-8766","Type":"Convenience Store"}},{"type":"Feature","id":6,"geometry":{"type":"Point","coordinates":[-87.612887999999998,41.692590000000003]},"properties":{"FID":6,"Name":"Quick Stop Food and Liquor","Address":"409 E 111th St","ZIP":60628,"PhoneNum":"773-660-1736","Type":"Convenience Store"}},{"type":"Feature","id":7,"geometry":{"type":"Point","coordinates":[-87.626694999999998,41.633963999999999]},"properties":{"FID":7,"Name":"Kwik Mart","Address":"169 W 144th St","ZIP":60827,"PhoneNum":"708-849-1013","Type":"Convenience Store"}}]}