{"type":"FeatureCollection","crs":{"type":"name","properties":{"name":"EPSG:4269"}},"features":[{"type":"Feature","id":0,"geometry":{"type":"Point","coordinates":[-87.547224,41.653238999999999]},"properties":{"FID":0,"Name":"Baltimore Food Store","Address":"13322 S Baltimore Ave","ZIP":60633,"PhoneNum":"(773) 646-5520","Type":"Grocery Store"}},{"type":"Feature","id":1,"geometry":{"type":"Point","coordinates":[-87.592561000000003,41.599677]},"properties":{"FID":1,"Name":"ALDI","Address":"1051 E 162nd St","ZIP":60473,"PhoneNum":"(855) 955-2534","Type":"Grocery Store"}},{"type":"Feature","id":2,"geometry":{"type":"Point","coordinates":[-87.660567999999998,41.655997999999997]},"properties":{"FID":2,"Name":"ALDI","Address":"13085 S Ashland Ave","ZIP":60827,"PhoneNum":"(855) 955-2534","Type":"Grocery Store"}},{"type":"Feature","id":3,"geometry":{"type":"Point","coordinates":[-87.642677000000006,41.685018999999997]},"properties":{"FID":3,"Name":"ALDI","Address":"821 W 115th St","ZIP":60643,"PhoneNum":"(855) 955-2534","Type":"Grocery Store"}},{"type":"Feature","id":4,"geometry":{"type":"Point","coordinates":[-87.547071000000003,41.655313]},"properties":{"FID":4,"Name":"Eric's Food Center","Address":"13209 S Baltimore Ave","ZIP":60633,"PhoneNum":" (773) 646-3555","Type":"Grocery Store"}},{"type":"Feature","id":5,"geometry":{"type":"Point","coordinates":[-87.632974000000004,41.600853999999998]},"properties":{"FID":5,"Name":"Carniceria La Rosita","Address":"400 E 159th St","ZIP":60426,"PhoneNum":"(708) 333-6888","Type":"Grocery Store"}},{"type":"Feature","id":6,"geometry":{"type":"Point","coordinates":[-87.597637000000006,41.614626000000001]},"properties":{"FID":6,"Name":"Fairway Finer Foods","Address":"15441 Cottage Grove Ave","ZIP":60419,"PhoneNum":"(708) 841-8920","Type":"Grocery Store"}},{"type":"Feature","id":7,"geometry":{"type":"Point","coordinates":[-87.594212999999996,41.622635000000002]},"properties":{"FID":7,"Name":"Food 4 Less","Address":"1000 E Sibley Blvd","ZIP":60419,"PhoneNum":"(708) 201-2940","Type":"Grocery Store"}},{"type":"Feature","id":8,"geometry":{"type":"Point","coordinates":[-87.617133999999993,41.633566000000002]},"properties":{"FID":8,"Name":"Fairway Finer Foods","Address":"200 E 144th St","ZIP":60419,"PhoneNum":"(708) 841-1919","Type":"Grocery Store"}},{"type":"Feature","id":9,"geometry":{"type":"Point","coordinates":[-87.670336000000006,41.655678000000002]},"properties":{"FID":9,"Name":"Fruteria El Eden","Address":"2000 Vermont St","ZIP":60406,"PhoneNum":"(708) 371-7740","Type":"Grocery Store"}},{"type":"Feature","id":10,"geometry":{"type":"Point","coordinates":[-87.680176000000003,41.661513999999997]},"properties":{"FID":10,"Name":"El Ranchito Market","Address":"12742 Western Ave","ZIP":60406,"PhoneNum":"(708) 239-0686","Type":"Grocery Store"}},{"type":"Feature","id":11,"geometry":{"type":"Point","coordinates":[-87.662514999999999,41.680542000000003]},"properties":{"FID":11,"Name":"Jewel-Osco","Address":"11730 S Marshfield Ave","ZIP":60643,"PhoneNum":"(773) 568-8157","Type":"Grocery Store"}},{"type":"Feature","id":12,"geometry":{"type":"Point","coordinates":[-87.637739999999994,41.603541]},"properties":{"FID":12,"Name":"Los Amigos","Address":"15746 Woodbridge Ave","ZIP":60426,"PhoneNum":"(708) 339-3066","Type":"Grocery Store"}},{"type":"Feature","id":13,"geometry":{"type":"Point","coordinates":[-87.648886000000005,41.662438000000002]},"properties":{"FID":13,"Name":"Image Foods Inc","Address":"3802 W 127th Pl","ZIP":60803,"PhoneNum":"(708) 489-9729","Type":"Grocery Store"}},{"type":"Feature","id":14,"geometry":{"type":"Point","coordinates":[-87.600144,41.599856000000003]},"properties":{"FID":14,"Name":"Jewel-Osco","Address":"763 E 162nd St","ZIP":60473,"PhoneNum":"(708) 596-1960","Type":"Grocery Store"}},{"type":"Feature","id":15,"geometry":{"type":"Point","coordinates":[-87.617160999999996,41.652365000000003]},"properties":{"FID":15,"Name":"Key Food & Liquor","Address":"13355 S Indiana Ave","ZIP":60827,"PhoneNum":"(773) 928-7872","Type":"Grocery Store"}},{"type":"Feature","id":16,"geometry":{"type":"Point","coordinates":[-87.614611999999994,41.707245]},"properties":{"FID":16,"Name":"Grocery Basket","Address":"351 E 103rd St","ZIP":60628,"PhoneNum":"(773) 821-4091","Type":"Grocery Store"}},{"type":"Feature","id":17,"geometry":{"type":"Point","coordinates":[-87.531090000000006,41.615453000000002]},"properties":{"FID":17,"Name":"Lupita's Food Market","Address":"249 Pulaski Rd","ZIP":60409,"PhoneNum":"(708) 868-5170","Type":"Grocery Store"}},{"type":"Feature","id":18,"geometry":{"type":"Point","coordinates":[-87.572788000000003,41.622796000000001]},"properties":{"FID":18,"Name":"Pete's Fresh Market","Address":"1968 Sibley Blvd","ZIP":60409,"PhoneNum":"(708) 382-3800","Type":"Grocery Store"}},{"type":"Feature","id":19,"geometry":{"type":"Point","coordinates":[-87.539477000000005,41.61347]},"properties":{"FID":19,"Name":"Misch Brothers","Address":"745 Burnham Ave","ZIP":60409,"PhoneNum":"(708) 862-6881","Type":"Grocery Store"}},{"type":"Feature","id":20,"geometry":{"type":"Point","coordinates":[-87.662567999999993,41.678637999999999]},"properties":{"FID":20,"Name":"Target","Address":"11840 S Marshfield Ave","ZIP":60643,"PhoneNum":"(773) 396-5506","Type":"Grocery Store"}},{"type":"Feature","id":21,"geometry":{"type":"Point","coordinates":[-87.597583999999998,41.694628000000002]},"properties":{"FID":21,"Name":"Walmart Supercenter","Address":"10900 S Doty Ave","ZIP":60628,"PhoneNum":"(773) 344-9016","Type":"Grocery Store"}},{"type":"Feature","id":22,"geometry":{"type":"Point","coordinates":[-87.642679999999999,41.699584999999999]},"properties":{"FID":22,"Name":"Save-A-Lot","Address":"10700 S Halsted St","ZIP":60628,"PhoneNum":"(773) 821-7705","Type":"Grocery Store"}},{"type":"Feature","id":23,"geometry":{"type":"Point","coordinates":[-87.624585999999994,41.593707000000002]},"properties":{"FID":23,"Name":"Walt's Food Center","Address":"330 W Taft Dr","ZIP":60473,"PhoneNum":"(708) 596-3166","Type":"Grocery Store"}},{"type":"Feature","id":24,"geometry":{"type":"Point","coordinates":[-87.616956000000002,41.601785999999997]},"properties":{"FID":24,"Name":"Walt's Food Centers","Address":"16145 State St","ZIP":60473,"PhoneNum":"(708) 333-5500","Type":"Grocery Store"}},{"type":"Feature","id":25,"geometry":{"type":"Point","coordinates":[-87.514700000000005,41.613]},"properties":{"FID":25,"Name":"1st Choice Market","Address":"5600 Sohl Ave","ZIP":46320,"PhoneNum":"(219) 852-4200","Type":"Grocery Store"}},{"type":"Feature","id":26,"geometry":{"type":"Point","coordinates":[-87.507999999999996,41.633299999999998]},"properties":{"FID":26,"Name":"ALDI","Address":"4415 Calumet Ave","ZIP":46327,"PhoneNum":"(855) 955-2534","Type":"Grocery Store"}},{"type":"Feature","id":27,"geometry":{"type":"Point","coordinates":[-87.514899999999997,41.632199999999997]},"properties":{"FID":27,"Name":"La Azteca","Address":"523 Gostlin St","ZIP":46327,"PhoneNum":"(219) 932-2813","Type":"Grocery Store"}},{"type":"Feature","id":28,"geometry":{"type":"Point","coordinates":[-87.522400000000005,41.621099999999998]},"properties":{"FID":28,"Name":"Strack & Van Til","Address":"115 Sibley St","ZIP":46320,"PhoneNum":"(219) 937-3000","Type":"Grocery Store"}},{"type":"Feature","id":29,"geometry":{"type":"Point","coordinates":[-87.519800000000004,41.693100000000001]},"properties":{"FID":29,"Name":"Walmart Grocery Pickup","Address":"1100 5th St","ZIP":46320,"PhoneNum":"(219) 730-7969","Type":"Grocery Store"}}]}