{"type":"FeatureCollection","crs":{"type":"name","properties":{"name":"EPSG:4269"}},"features":[{"type":"Feature","id":0,"geometry":{"type":"Point","coordinates":[-87.559535100000005,41.6302916]},"properties":{"FID":0,"Name":"Little Brown Jug","Address":"14540 S Torrence Ave","ZIP":60633,"PhoneNum":"(708) 862-3139","Type":"Taverns"}},{"type":"Feature","id":1,"geometry":{"type":"Point","coordinates":[-87.545051700000002,41.6480131]},"properties":{"FID":1,"Name":"South Shore Inn","Address":"13611 S Brainard Ave","ZIP":60633,"PhoneNum":"(773) 646-0350","Type":"Hotels"}},{"type":"Feature","id":2,"geometry":{"type":"Point","coordinates":[-87.547504599999996,41.6553258]},"properties":{"FID":2,"Name":"Catering By Steve's","Address":"13200 S Baltimore Ave","ZIP":60633,"PhoneNum":"(773) 646-1071","Type":"Caterers"}},{"type":"Feature","id":3,"geometry":{"type":"Point","coordinates":[-87.574978999999999,41.623100399999998]},"properties":{"FID":3,"Name":"Nicky's Gyros","Address":"2050 Sibley Blvd","ZIP":60409,"PhoneNum":"(708) 862-3444","Type":"Greek Restaurants"}},{"type":"Feature","id":4,"geometry":{"type":"Point","coordinates":[-87.607317199999997,41.637329200000003]},"properties":{"FID":4,"Name":"Spoon's BBQ","Address":"14147 Chicago Rd","ZIP":60419,"PhoneNum":"(708) 880-0894","Type":"Barbecue Restaurants"}},{"type":"Feature","id":5,"geometry":{"type":"Point","coordinates":[-87.617457700000003,41.638970999999998]},"properties":{"FID":5,"Name":"Abes Famous Fish Chicken-Subs","Address":"14100 S Indiana Ave","ZIP":60827,"PhoneNum":"(708) 841-3200","Type":"Seafood Restaurants"}},{"type":"Feature","id":6,"geometry":{"type":"Point","coordinates":[-87.617461599999999,41.638356999999999]},"properties":{"FID":6,"Name":"China Palace","Address":"14114 S Indiana Ave","ZIP":60827,"PhoneNum":"(708) 841-2380","Type":"Chinese Restaurants"}},{"type":"Feature","id":7,"geometry":{"type":"Point","coordinates":[-87.589742400000006,41.622260799999999]},"properties":{"FID":7,"Name":"Golden China","Address":"1117 E Sibley Blvd","ZIP":60419,"PhoneNum":"(708) 841-8899","Type":"Chinese Restaurants"}},{"type":"Feature","id":8,"geometry":{"type":"Point","coordinates":[-87.570466499999995,41.622797499999997]},"properties":{"FID":8,"Name":"Shark's Fish & Chicken","Address":"1870 Sibley Blvd","ZIP":60409,"PhoneNum":"(708) 730-3474","Type":"Seafood Restaurants"}},{"type":"Feature","id":9,"geometry":{"type":"Point","coordinates":[-87.595569299999994,41.622966699999999]},"properties":{"FID":9,"Name":"The Original Pancake House","Address":"844 E Sibley Blvd","ZIP":60419,"PhoneNum":"N/A","Type":"N/A"}},{"type":"Feature","id":10,"geometry":{"type":"Point","coordinates":[-87.589067099999994,41.620630200000001]},"properties":{"FID":10,"Name":"Davis Chinese","Address":"15101 University Ave","ZIP":60419,"PhoneNum":"(708) 841-5528","Type":"Chinese Restaurants"}},{"type":"Feature","id":11,"geometry":{"type":"Point","coordinates":[-87.565542199999996,41.622989199999999]},"properties":{"FID":11,"Name":"Gold Moon Chinese Restaurant","Address":"1656 Sibley Blvd","ZIP":60409,"PhoneNum":"(708) 868-3740","Type":"Chinese Restaurants"}},{"type":"Feature","id":12,"geometry":{"type":"Point","coordinates":[-87.565511999999998,41.622675000000001]},"properties":{"FID":12,"Name":"Greens BBQ Jerk & Soulfood","Address":"1655 Sibley Blvd","ZIP":60409,"PhoneNum":"(708) 782-8200","Type":"Barbecue Restaurants"}},{"type":"Feature","id":13,"geometry":{"type":"Point","coordinates":[-87.564979699999995,41.622539099999997]},"properties":{"FID":13,"Name":"Mohan Inc","Address":"1625 Sibley Blvd","ZIP":60409,"PhoneNum":"(708) 862-6061","Type":"Seafood Restaurants"}},{"type":"Feature","id":14,"geometry":{"type":"Point","coordinates":[-87.617477699999995,41.631210799999998]},"properties":{"FID":14,"Name":"Chicago Pit Stop","Address":"14510 S Indiana Ave","ZIP":60827,"PhoneNum":"(708) 849-9000","Type":"Barbecue Restaurants"}},{"type":"Feature","id":15,"geometry":{"type":"Point","coordinates":[-87.562196400000005,41.622438899999999]},"properties":{"FID":15,"Name":"Seafood Paradise Inc","Address":"1515 Sibley Blvd","ZIP":60409,"PhoneNum":"(708) 360-3553","Type":"Seafood Restaurants"}},{"type":"Feature","id":16,"geometry":{"type":"Point","coordinates":[-87.597614300000004,41.622892499999999]},"properties":{"FID":16,"Name":"Philly Steak Express","Address":"800 E Sibley Blvd","ZIP":60419,"PhoneNum":"(708) 841-5693","Type":"Steak Houses"}},{"type":"Feature","id":17,"geometry":{"type":"Point","coordinates":[-87.605639100000005,41.637313800000001]},"properties":{"FID":17,"Name":"Sharks Fish & Chicken","Address":"14150 Lincoln Ave","ZIP":60419,"PhoneNum":"(708) 841-2000","Type":"Seafood Restaurants"}},{"type":"Feature","id":18,"geometry":{"type":"Point","coordinates":[-87.592057800000006,41.622153400000002]},"properties":{"FID":18,"Name":"Snapper's Fish & Chicken Rest Aurant","Address":"1017 E Sibley Blvd","ZIP":60419,"PhoneNum":"(708) 201-1111","Type":"Chicken Restaurants"}},{"type":"Feature","id":19,"geometry":{"type":"Point","coordinates":[-87.560886699999998,41.630359200000001]},"properties":{"FID":19,"Name":"Phillie's Original Steak & Lemonade","Address":"2472 E State St","ZIP":60633,"PhoneNum":"(708) 832-4846","Type":"Steak Houses"}},{"type":"Feature","id":20,"geometry":{"type":"Point","coordinates":[-87.562547100000003,41.640986499999997]},"properties":{"FID":20,"Name":"Smuggler's Cove","Address":"14000 S Croissant Dr","ZIP":60633,"PhoneNum":"(708) 891-6606","Type":"American Restaurants"}},{"type":"Feature","id":21,"geometry":{"type":"Point","coordinates":[-87.547417699999997,41.652803300000002]},"properties":{"FID":21,"Name":"China Garden","Address":"13328 S Baltimore Ave","ZIP":60633,"PhoneNum":"(773) 646-3826","Type":"Chinese Restaurants"}},{"type":"Feature","id":22,"geometry":{"type":"Point","coordinates":[-87.546821600000001,41.653760200000001]},"properties":{"FID":22,"Name":"Wingz Around The World","Address":"3146 E 133rd St","ZIP":60633,"PhoneNum":"(773) 359-4708","Type":"American Restaurants"}},{"type":"Feature","id":23,"geometry":{"type":"Point","coordinates":[-87.545602200000005,41.653407000000001]},"properties":{"FID":23,"Name":"El Taquin","Address":"13307 S Brandon Ave","ZIP":60633,"PhoneNum":"(773) 359-4149","Type":"Mexican Restaurants"}},{"type":"Feature","id":24,"geometry":{"type":"Point","coordinates":[-87.5452449,41.643929100000001]},"properties":{"FID":24,"Name":"Tally Ho Pap","Address":"3000 E 138th Pl","ZIP":60633,"PhoneNum":"(708) 933-6360","Type":"Chinese Restaurants"}},{"type":"Feature","id":25,"geometry":{"type":"Point","coordinates":[-87.558994499999997,41.641573299999997]},"properties":{"FID":25,"Name":"Harbour Point Shrimp House Inc","Address":"13931 S Torrence Ave","ZIP":60633,"PhoneNum":"(708) 868-9240","Type":"Seafood Restaurants"}},{"type":"Feature","id":26,"geometry":{"type":"Point","coordinates":[-87.5539354,41.655092500000002]},"properties":{"FID":26,"Name":"Chicago Pita Kitchen","Address":"13227 S Brainard Ave","ZIP":60633,"PhoneNum":"(773) 646-2000","Type":"Sandwich Shops"}},{"type":"Feature","id":27,"geometry":{"type":"Point","coordinates":[-87.546876900000001,41.652383]},"properties":{"FID":27,"Name":"Los Cantaritos","Address":"13343 S Baltimore Ave","ZIP":60633,"PhoneNum":"(773) 646-4015","Type":"Mexican Restaurants"}},{"type":"Feature","id":28,"geometry":{"type":"Point","coordinates":[-87.547446600000001,41.650088500000003]},"properties":{"FID":28,"Name":"Pudgy's Pizza & Sandwiches","Address":"13460 S Baltimore Ave","ZIP":60633,"PhoneNum":"(773) 646-4199","Type":"Pizza"}},{"type":"Feature","id":29,"geometry":{"type":"Point","coordinates":[-87.546751299999997,41.655368099999997]},"properties":{"FID":29,"Name":"Doreen's Pizzeria","Address":"13201 S Baltimore Ave","ZIP":60633,"PhoneNum":"(773) 646-0063","Type":"Pizza"}},{"type":"Feature","id":30,"geometry":{"type":"Point","coordinates":[-87.557661699999997,41.630273799999998]},"properties":{"FID":30,"Name":"Sandwich Castle","Address":"2458 E State St","ZIP":60633,"PhoneNum":"(708) 862-8050","Type":"Sandwich Shops"}},{"type":"Feature","id":31,"geometry":{"type":"Point","coordinates":[-87.547504599999996,41.652990000000003]},"properties":{"FID":31,"Name":"Monnie D's Pizza","Address":"13320 S Baltimore Ave","ZIP":60633,"PhoneNum":"(773) 359-2880","Type":"Pizza"}},{"type":"Feature","id":32,"geometry":{"type":"Point","coordinates":[-87.561860499999995,41.648206399999999]},"properties":{"FID":32,"Name":"Popichullo","Address":"13603 S Calhoun Ave","ZIP":60633,"PhoneNum":"(773) 646-9000","Type":"N/A"}},{"type":"Feature","id":33,"geometry":{"type":"Point","coordinates":[-87.561860499999995,41.648206399999999]},"properties":{"FID":33,"Name":"Saginaw Restaurant & Food","Address":"2642 E 130th St","ZIP":60633,"PhoneNum":"(773) 646-3877","Type":"N/A"}},{"type":"Feature","id":34,"geometry":{"type":"Point","coordinates":[-87.546664399999997,41.649303000000003]},"properties":{"FID":34,"Name":"Dina's Carry Out","Address":"13507 S Brainard Ave","ZIP":60633,"PhoneNum":"(773) 646-2116","Type":"N/A"}},{"type":"Feature","id":35,"geometry":{"type":"Point","coordinates":[-87.546123600000001,41.649700199999998]},"properties":{"FID":35,"Name":"Mancini Pizzeria","Address":"13508 S Brandon Ave","ZIP":60633,"PhoneNum":"(773) 646-2783","Type":"N/A"}},{"type":"Feature","id":36,"geometry":{"type":"Point","coordinates":[-87.546732000000006,41.655153599999998]},"properties":{"FID":36,"Name":"Eric's Food Center","Address":"13209 S Baltimore Ave","ZIP":60633,"PhoneNum":"(773) 646-3555","Type":"Delicatessens"}},{"type":"Feature","id":37,"geometry":{"type":"Point","coordinates":[-87.540661400000005,41.645752299999998]},"properties":{"FID":37,"Name":"Baltimore Foods-Train Station","Address":"13730 S Brainard Ave","ZIP":60633,"PhoneNum":"(773) 646-3232","Type":"Delicatessens"}},{"type":"Feature","id":38,"geometry":{"type":"Point","coordinates":[-87.540396700000002,41.6446629]},"properties":{"FID":38,"Name":"Burger King","Address":"13770 S Avenue O","ZIP":60633,"PhoneNum":"N/A","Type":"Fast Food Restaurants"}},{"type":"Feature","id":39,"geometry":{"type":"Point","coordinates":[-87.537093600000006,41.655629400000002]},"properties":{"FID":39,"Name":"Club 81 Too","Address":"13157 S Avenue M","ZIP":60633,"PhoneNum":"(773) 646-4292","Type":"Bars"}},{"type":"Feature","id":40,"geometry":{"type":"Point","coordinates":[-87.563740199999998,41.639483499999997]},"properties":{"FID":40,"Name":"Waterfront Marine Inc","Address":"14042 S Croissant Dr","ZIP":60633,"PhoneNum":"(708) 862-5118","Type":"Taverns"}},{"type":"Feature","id":41,"geometry":{"type":"Point","coordinates":[-87.563740199999998,41.639483499999997]},"properties":{"FID":41,"Name":"Steve's Lounge","Address":"13200 S Baltimore Ave","ZIP":60633,"PhoneNum":"(773) 646-1071","Type":"Taverns"}},{"type":"Feature","id":42,"geometry":{"type":"Point","coordinates":[-87.5452449,41.643929100000001]},"properties":{"FID":42,"Name":"Scooters Bar & Grill","Address":"3000 E 138th Pl","ZIP":60633,"PhoneNum":"(708) 933-6766","Type":"Bar & Grills"}},{"type":"Feature","id":43,"geometry":{"type":"Point","coordinates":[-87.537199999999999,41.651955800000003]},"properties":{"FID":43,"Name":"Georgie's Tavern","Address":"13359 S Avenue M","ZIP":60633,"PhoneNum":"(773) 646-1524","Type":"Taverns"}},{"type":"Feature","id":44,"geometry":{"type":"Point","coordinates":[-87.541188700000006,41.6362886]},"properties":{"FID":44,"Name":"Sapphire Bar & Grill","Address":"14224 S Green Bay Ave","ZIP":60633,"PhoneNum":"(708) 868-2736","Type":"Bar & Grills"}},{"type":"Feature","id":45,"geometry":{"type":"Point","coordinates":[-87.617477699999995,41.631210799999998]},"properties":{"FID":45,"Name":"I 57 Rib House","Address":"14510 S Indiana Ave","ZIP":60827,"PhoneNum":"(708) 849-9000","Type":"Barbecue Restaurants"}},{"type":"Feature","id":46,"geometry":{"type":"Point","coordinates":[-87.606930199999994,41.637265599999999]},"properties":{"FID":46,"Name":"Chinn's Restaurant","Address":"610 E 142nd St","ZIP":60419,"PhoneNum":"(708) 849-3333","Type":"Asian Restaurants"}},{"type":"Feature","id":47,"geometry":{"type":"Point","coordinates":[-87.569209000000001,41.622408]},"properties":{"FID":47,"Name":"USA Pancake House","Address":"1801 Sibley Blvd","ZIP":60409,"PhoneNum":"(708) 862-2236","Type":"N/A"}},{"type":"Feature","id":48,"geometry":{"type":"Point","coordinates":[-87.606430000000003,41.6223162]},"properties":{"FID":48,"Name":"Olivia's Restaurant","Address":"613 E Sibley Blvd","ZIP":60419,"PhoneNum":"(708) 849-4955","Type":"Family Style Restaurants"}},{"type":"Feature","id":49,"geometry":{"type":"Point","coordinates":[-87.608262300000007,41.622880100000003]},"properties":{"FID":49,"Name":"Pepe's Mexican Restaurant","Address":"536 E Sibley Blvd","ZIP":60419,"PhoneNum":"(708) 849-9635","Type":"Mexican Restaurants"}}]}